2 57534  42.9981 142.0849 0001300 268.3131  91.7567 15.15950777 10121
STARLINK-30262          
1 57535U 23115Q   23277.90083812  .00010063  00000+0  77502-3 0  9992
2 57535  42.9987 142.8411 0001924 263.3610  96.7013 15.01736476  8929
STARLINK-30166          
1 57602U 23119A   23277.89035255  .00010647  00000+0  76135-3 0  9996
2 57602  42.9984 220.6303 0001645 272.7977  87.2678 15.04500265  9624
STARLINK-30223          
1 57603U 23119B   23278.13874209  .00011706  00000+0  83518-3 0  9995
2 57603  43.0005 219.0578 0001377 271.2920  88.7766 15.04517614  9700
STARLINK-30218          
1 57604U 23119C   23278.14299149  .00012577  00000+0  89630-3 0  9999
2 57604  43.0014 219.0869 0002063 277.2079  82.8529 15.04508785  9710
STARLINK-30138          
1 57605U 23119D   23278.14097990  .00039602  00000+0  27785-2 0  9990
2 57605  42.9983 219.0726 0001424 253.7667 106.3020 15.04533542  9715
STARLINK-30255          
1 57606U 23119E   23277.91668981  .00018967  00000+0  14169-2 0  9992
2 57606  42.9988 219.8931 0001023 263.2346 130.7631 15.02493892  6001
STARLINK-30252          
1 57607U 23119F   23277.87425884  .00012770  00000+0  66387-3 0  9997
2 57607  42.9998 215.3894 0001154 267.8326  92.2389 15.15985981  9740
STARLINK-30258          
1 57608U 23119G   23278.12982933  .00015002  00000+0  10663-2 0  9996
2 57608  42.9981 218.9897 0001278 254.6759 105.3942 15.04496902  9712
STARLINK-30174          
1 57609U 23119H   23278.12345707  .00031008  00000+0  21820-2 0  9990
2 57609  42.9982 218.9414 0000760 269.9319  90.1437 15.04522300  9717
STARLINK-30248          
1 57610U 23119J   23278.12688316  .00036166  00000+0  25406-2 0  9992
2 57610  42.9986 218.9666 0001727 272.6351  87.4294 15.04523631  9665
STARLINK-30052          
1 57611U 23119K   23278.11977246  .00031994  00000+0  22506-2 0  9997
2 57611  42.9983 218.9152 0001368 266.7596  93.3090 15.04522202  9729
STARLINK-30245          
1 57612U 23119L   23278.11922965  .00005076  00000+0  37084-3 0  9996
2 57612  42.9996 218.9109 0001346 263.5466  96.5224 15.04503003  9725
STARLINK-30041          
1 57613U 23119M   23278.11582516  .00033193  00000+0  23339-2 0  9999
2 57613  42.9994 218.8838 0001373 271.6807  88.3879 15.04523627  9719
STARLINK-30244          
1 57614U 23119N   23278.11074556  .00024320  00000+0  17169-2 0  9996
2 57614  42.9986 218.8462 0001916 289.1111  70.9525 15.04505766  9718
STARLINK-30246          
1 57615U 23119P   23277.89746940  .00001546  00000+0  13218-3 0  9991
2 57615  43.0001 219.8071 0001441 261.2999  98.7680 15.01729081  9696
STARLINK-30075          
1 57616U 23119Q   23277.90259317  .00010906  00000+0  77940-3 0  9993
2 57616  42.9970 220.7224 0000940 270.8703  89.2032 15.04506370  9685
STARLINK-30148          
1 57617U 23119R   23278.03129840  .00027924  00000+0  20726-2 0  9993
2 57617  42.9989 219.9656 0000711 264.9402  95.1359 15.02560706  9691
STARLINK-30249          
1 57618U 23119S   23278.02877085  .00031581  00000+0  22221-2 0  9990
2 57618  42.9981 219.9503 0001547 265.4391  94.6275 15.04518278  9641
STARLINK-30141          
1 57620U 23119U   23277.88532531  .00015375  00000+0  10923-2 0  9999
2 57620  42.9985 220.5937 0000930 291.9028  68.1716 15.04501289  9687
STARLINK-30150          
1 57621U 23119V   23277.88915464  .00012147  00000+0  86618-3 0  9999
2 57621  42.9983 220.6225 0000774 307.3709  52.7064 15.04509362  9686
STARLINK-30056          
1 57622U 23119W   23277.87300559  .00023113  00000+0  17572-2 0  9999
2 57622  42.9981 219.6323 0001227 250.0280 110.0430 15.01733493  9691
STARLINK-30100          
1 57623U 23119X   23277.88166374  .00013803  00000+0  98253-3 0  9997
2 57623  42.9981 220.5655 0000772 324.7448  35.3344 15.04492036  9680
STARLINK-30309          
1 57632U 23122A   23277.86121616  .00038066  00000+0  26703-2 0  9997
2 57632  42.9985 233.9446 0001282 257.2750 102.7949 15.04555324  8772
STARLINK-30306          
1 57633U 23122B   23277.59239099  .00014739  00000+0  10481-2 0  9990
2 57633  42.9959 235.3692 0000755 259.7094 100.3664 15.04489733  8739
STARLINK-30323          
1 57634U 23122C   23277.88220630  .00000298  00000+0  27111-4 0  9999
2 57634  42.9990 229.8179 0000446 245.6367 114.4434 15.15962362  8824
STARLINK-30329          
1 57635U 23122D   23277.58855498  .00008679  00000+0  62366-3 0  9994
2 57635  42.9991 235.3395 0001010 276.0023  84.0705 15.04491439  8679
STARLINK-30330          
1 57636U 23122E   23278.04872108  .00006327  00000+0  45865-3 0  9997
2 57636  42.9990 232.7743 0001108 269.8166  90.2550 15.04496462  8794
STARLINK-30311          
1 57637U 23122F   23278.04200713  .00006013  00000+0  43667-3 0  9995
2 57637  42.9974 232.7257 0000706 272.8694  87.2068 15.04492509  8787
STARLINK-30328          
1 57638U 23122G   23277.86334149  .00060296  00000+0  30737-2 0  9992
2 57638  43.0008 227.9270 0001577 264.1649  95.9018 15.15944249  8854
STARLINK-30326          
1 57639U 23122H   23277.99631423  .00005545  00000+0  40389-3 0  9993
2 57639  42.9998 232.3736 0001631 255.8928 104.1733 15.04494155  8790
STARLINK-30324          
1 57640U 23122J   23277.90422710  .00025548  00000+0  18032-2 0  9997
2 57640  42.9981 233.4104 0000826 250.3808 109.6946 15.04492176  8783
STARLINK-30312          
1 57641U 23122K   23277.89986187  .00013322  00000+0  94861-3 0  9991
2 57641  42.9966 233.3761 0000590 269.1637  90.9139 15.04503415  8786
STARLINK-30263          
1 57642U 23122L   23278.02815866  .00020699  00000+0  14642-2 0  9996
2 57642  42.9991 232.6201 0001810 275.6636  84.4000 15.04504120  8782
STARLINK-30280          
1 57643U 23122M   23278.15199783  .00002017  00000+0  15617-3 0  9992
2 57643  42.9972 231.8305 0000603 266.7412  93.3362 15.04509169  8801
STARLINK-30247          
1 57644U 23122N   23277.74510996  .00002836  00000+0  22491-3 0  9997
2 57644  42.9987 233.9387 0000741 261.2508  98.8251 15.02541404  8768
STARLINK-30277          
1 57645U 23122P   23278.02580991  .00033967  00000+0  23883-2 0  9996
2 57645  43.0001 232.6013 0001319 218.4487 141.6263 15.04514472  8792
STARLINK-30265          
1 57646U 23122Q   23278.03101616  .00026149  00000+0  18443-2 0  9991
2 57646  42.9966 232.6401 0000947 240.7331 119.3417 15.04508857  8786
STARLINK-30286          
1 57647U 23122R   23277.60549017  .00003691  00000+0  28814-3 0  9996
2 57647  42.9986 234.6028 0001092 259.0447 101.0272 15.02542238  8741
STARLINK-30243          
1 57648U 23122S   23277.72512963  .00001413  00000+0  11964-3 0  9998
2 57648  42.9979 233.7856 0000598 291.1374  68.9405 15.02539762  8768
STARLINK-30293          
1 57649U 23122T   23277.59887343  .00072845  00000+0  27180-2 0  9994
2 57649  43.0000 232.0000 0002213 195.7512 164.3271 15.26502721  8772
STARLINK-30299          
1 57650U 23122U   23277.87791703  .00033463  00000+0  23541-2 0  9991
2 57650  42.9988 233.2132 0001056 229.8603 130.2147 15.04501429  8785
STARLINK-30294          
1 57651U 23122V   23278.13448796 -.00006780  00000+0 -33540-3 0  9998
2 57651  42.9999 229.1357 0001758 268.4231  91.6415 15.15967456  8793
STARLINK-30276          
1 57652U 23122W   23277.74016548  .00000582  00000+0  55448-4 0  9995
2 57652  42.9987 233.8958 0000968 273.2309  86.8424 15.04492004  8765
STARLINK-30289          
1 57653U 23122X   23277.91668981  .00041700  00000+0  21324-2 0  9990
2 57653  43.0007 227.8293 0001637 254.0767 322.7716 15.15985177  5825
STARLINK-30267          
1 57663U 23124A   23277.75001157  .00066532  00000+0  31582-2 0  9998
2 57663  53.0535 354.8410 0001401  98.9739  62.0249 15.18653232  6034
STARLINK-30302          
1 57664U 23124B   23277.92120808  .00000803  00000+0  53395-4 0  9990
2 57664  53.0544 355.5060 0001955  87.5382 272.5836 15.18697511  7978
STARLINK-30298          
1 57665U 23124C   23277.66015896  .00078166  00000+0  36923-2 0  9995
2 57665  53.0532 356.7240 0001731  68.6183 291.4996 15.18742923  7931
STARLINK-30301          
1 57666U 23124D   23278.16667824 -.00673721  00000+0 -24087-2 0  9994
2 57666  53.0438 342.2355 0001543  85.5519  65.0239 15.89603106  8175
STARLINK-30275          
1 57667U 23124E   23277.91900821  .00015398  00000+0  74642-3 0  9995
2 57667  53.0553 355.4929 0001476  76.9887 283.1272 15.18715211  7615
STARLINK-30278          
1 57668U 23124F   23277.91682009  .00048466  00000+0  23083-2 0  9995
2 57668  53.0545 355.4794 0001637  89.3545 270.7637 15.18685691  7979
STARLINK-30271          
1 57669U 23124G   23277.91243165  .00023520  00000+0  11309-2 0  9994
2 57669  53.0552 355.4519 0001727  73.6413 286.4771 15.18714540  7972
STARLINK-30322          
1 57670U 23124H   23277.70482254  .00055446  00000+0  26320-2 0  9998
2 57670  53.0573 355.5871 0001458  71.4900 288.6253 15.18738709  7609
STARLINK-30296          
1 57671U 23124J   23276.00002315 -.00103695  00000+0 -49791-2 0  9996
2 57671  53.0531   1.6030 0001770  89.7901 123.1232 15.18792732  6087
STARLINK-30274          
1 57672U 23124K   23277.68648574  .00046247  00000+0  22004-2 0  9990
2 57672  53.0507 356.1755 0001845  62.6612 297.4570 15.18741730  7943
STARLINK-30316          
1 57673U 23124L   23277.48685648  .00005134  00000+0  25915-3 0  9997
2 57673  53.0506 357.0642 0001724  89.1557 270.9635 15.18738092  7918
STARLINK-30314          
1 57674U 23124M   23277.57460951  .00033297  00000+0  15904-2 0  9993
2 57674  53.0567 356.9007 0001737  79.8295 280.2896 15.18761865  7825
STARLINK-30317          
1 57675U 23124N   23277.70841974  .00000304  00000+0  29632-4 0  9995
2 57675  53.0559 356.3129 0001664  74.7585 285.3593 15.18728512  7946
STARLINK-30313          
1 57676U 23124P   23277.94534472  .00024778  00000+0  11928-2 0  9992
2 57676  53.0504 354.9424 0001592  94.2854 265.8322 15.18643036  7989
STARLINK-30303          
1 57677U 23124Q   23277.94313869  .00059630  00000+0  28284-2 0  9996
2 57677  53.0508 354.9330 0002495  72.7597 287.3670 15.18730981  7844
